{"type": "FeatureCollection", "features": [ {"type": "Feature", "properties": {"norad_id": 43648, "name": "BEIDOU-3 M15 (C34)", "group": "gnss", "lat": -26.481496822173533, "lon": -74.48746131721992, "alt_km": 21525.089420790737, "timestamp": "2025-12-12T05:47:29.014460+00:00", "meta": {"OBJECT_NAME": "BEIDOU-3 M15 (C34)", "OBJECT_ID": "2018-078B", "EPOCH": "2025-12-09T14:32:59.144640", "MEAN_MOTION": 1.86231871, "ECCENTRICITY": 0.0003622, "INCLINATION": 54.2606, "RA_OF_ASC_NODE": 306.6314, "ARG_OF_PERICENTER": 18.0065, "MEAN_ANOMALY": 341.9965, "EPHEMERIS_TYPE": 0, "CLASSIFICATION_TYPE": "U", "NORAD_CAT_ID": 43648, "ELEMENT_SET_NO": 999, "REV_AT_EPOCH": 4864, "BSTAR": 0, "MEAN_MOTION_DOT": -7.7e-07, "MEAN_MOTION_DDOT": 0}, "tle": {"line1": "1 43648U 18078B   25343.60624010 -.00000077  00000+0  00000+0 0  9998", "line2": "2 43648  54.2606 306.6314 0003622  18.0065 341.9965  1.86231871 48642"}}, "geometry": {"type": "Point", "coordinates": [-74.48746131721992, -26.481496822173533]}}, {"type": "Feature", "properties": {"norad_id": 43683, "name": "BEIDOU-3 G1 (C59)", "group": "gnss", "lat": -1.1181627983528575, "lon": -51.88043015932859, "alt_km": 35792.238236623554, "timestamp": "2025-12-12T05:47:29.014472+00:00", "meta": {"OBJECT_NAME": "BEIDOU-3 G1 (C59)", "OBJECT_ID": "2018-085A", "EPOCH": "2025-12-11T21:01:31.887264", "MEAN_MOTION": 1.00270946, "ECCENTRICITY": 0.00017564, "INCLINATION": 2.6059, "RA_OF_ASC_NODE": 103.0016, "ARG_OF_PERICENTER": 64.132, "MEAN_ANOMALY": 9.1505, "EPHEMERIS_TYPE": 0, "CLASSIFICATION_TYPE": "U", "NORAD_CAT_ID": 43683, "ELEMENT_SET_NO": 999, "REV_AT_EPOCH": 2618, "BSTAR": 0, "MEAN_MOTION_DOT": -2.69e-06, "MEAN_MOTION_DDOT": 0}, "tle": {"line1": "1 43683U 18085A   25345.87606351 -.00000269  00000+0  00000+0 0  9997", "line2": "2 43683   2.6059 103.0016 0001756  64.1320   9.1505  1.00270946 26180"}}, "geometry": {"type": "Point", "coordinates": [-51.88043015932859, -1.1181627983528575]}}, {"type": "Feature", "properties": {"norad_id": 43687, "name": "COSMOS 2529 (757)", "group": "gnss", "lat": -40.24418581586188, "lon": 42.96978577738574, "alt_km": 19118.57297882849, "timestamp": "2025-12-12T05:47:29.014486+00:00", "meta": {"OBJECT_NAME": "COSMOS 2529 (757)", "OBJECT_ID": "2018-086A", "EPOCH": "2025-12-11T11:27:45.415872", "MEAN_MOTION": 2.13101904, "ECCENTRICITY": 0.00072776, "INCLINATION": 64.292, "RA_OF_ASC_NODE": 198.9311, "ARG_OF_PERICENTER": 254.2169, "MEAN_ANOMALY": 105.7727, "EPHEMERIS_TYPE": 0, "CLASSIFICATION_TYPE": "U", "NORAD_CAT_ID": 43687, "ELEMENT_SET_NO": 999, "REV_AT_EPOCH": 5528, "BSTAR": 0, "MEAN_MOTION_DOT": 5.5e-07, "MEAN_MOTION_DDOT": 0}, "tle": {"line1": "1 43687U 18086A   25345.47760898  .00000055  00000+0  00000+0 0  9997", "line2": "2 43687  64.2920 198.9311 0007277 254.2169 105.7727  2.13101904 55287"}}, "geometry": {"type": "Point", "coordinates": [42.96978577738574, -40.24418581586188]}}, {"type": "Feature", "properties": {"norad_id": 43706, "name": "BEIDOU-3 M17 (C36)", "group": "gnss", "lat": -31.63515094161626, "lon": 35.07409618104304, "alt_km": 21531.38110021426, "timestamp": "2025-12-12T05:47:29.014497+00:00", "meta": {"OBJECT_NAME": "BEIDOU-3 M17 (C36)", "OBJECT_ID": "2018-093A", "EPOCH": "2025-12-11T15:30:48.559104", "MEAN_MOTION": 1.86228399, "ECCENTRICITY": 0.00062348, "INCLINATION": 54.1726, "RA_OF_ASC_NODE": 188.6587, "ARG_OF_PERICENTER": 307.4017, "MEAN_ANOMALY": 234.1514, "EPHEMERIS_TYPE": 0, "CLASSIFICATION_TYPE": "U", "NORAD_CAT_ID": 43706, "ELEMENT_SET_NO": 999, "REV_AT_EPOCH": 4804, "BSTAR": 0, "MEAN_MOTION_DOT": 7.1e-07, "MEAN_MOTION_DDOT": 0}, "tle": {"line1": "1 43706U 18093A   25345.64639536  .00000071  00000+0  00000+0 0  9998", "line2": "2 43706  54.1726 188.6587 0006234 307.4017 234.1514  1.86228399 48041"}}, "geometry": {"type": "Point", "coordinates": [35.07409618104304, -31.63515094161626]}}, {"type": "Feature", "properties": {"norad_id": 43707, "name": "BEIDOU-3 M18 (C37)", "group": "gnss", "lat": -36.21531285466553, "lon": 156.6930273092414, "alt_km": 21519.165660178838, "timestamp": "2025-12-12T05:47:29.014508+00:00", "meta": {"OBJECT_NAME": "BEIDOU-3 M18 (C37)", "OBJECT_ID": "2018-093B", "EPOCH": "2025-12-09T02:08:32.306784", "MEAN_MOTION": 1.86226655, "ECCENTRICITY": 0.00062934, "INCLINATION": 54.1729, "RA_OF_ASC_NODE": 188.7377, "ARG_OF_PERICENTER": 351.6926, "MEAN_ANOMALY": 8.358, "EPHEMERIS_TYPE": 0, "CLASSIFICATION_TYPE": "U", "NORAD_CAT_ID": 43707, "ELEMENT_SET_NO": 999, "REV_AT_EPOCH": 4799, "BSTAR": 0, "MEAN_MOTION_DOT": 4.9e-07, "MEAN_MOTION_DDOT": 0}, "tle": {"line1": "1 43707U 18093B   25343.08926281  .00000049  00000+0  00000+0 0  9996", "line2": "2 43707  54.1729 188.7377 0006293 351.6926   8.3580  1.86226655 47998"}}, "geometry": {"type": "Point", "coordinates": [156.6930273092414, -36.21531285466553]}}, {"type": "Feature", "properties": {"norad_id": 43873, "name": "GPS BIII-1  (PRN 04)", "group": "gnss", "lat": 29.561269729061507, "lon": -103.3146332205226, "alt_km": 20117.71950534915, "timestamp": "2025-12-12T05:47:29.014521+00:00", "meta": {"OBJECT_NAME": "GPS BIII-1  (PRN 04)", "OBJECT_ID": "2018-109A", "EPOCH": "2025-12-11T18:46:12.593280", "MEAN_MOTION": 2.00553575, "ECCENTRICITY": 0.00372966, "INCLINATION": 55.5668, "RA_OF_ASC_NODE": 99.5845, "ARG_OF_PERICENTER": 194.9269, "MEAN_ANOMALY": 337.0503, "EPHEMERIS_TYPE": 0, "CLASSIFICATION_TYPE": "U", "NORAD_CAT_ID": 43873, "ELEMENT_SET_NO": 999, "REV_AT_EPOCH": 5131, "BSTAR": 0, "MEAN_MOTION_DOT": 2e-08, "MEAN_MOTION_DDOT": 0}, "tle": {"line1": "1 43873U 18109A   25345.78209020  .00000002  00000+0  00000+0 0  9991", "line2": "2 43873  55.5668  99.5845 0037296 194.9269 337.0503  2.00553575 51312"}}, "geometry": {"type": "Point", "coordinates": [-103.3146332205226, 29.561269729061507]}}, {"type": "Feature", "properties": {"norad_id": 44204, "name": "BEIDOU-3 IGSO-1 (C38)", "group": "gnss", "lat": -48.61268699404366, "lon": -96.21048106394186, "alt_km": 35692.18815241568, "timestamp": "2025-12-12T05:47:29.014532+00:00", "meta": {"OBJECT_NAME": "BEIDOU-3 IGSO-1 (C38)", "OBJECT_ID": "2019-023A", "EPOCH": "2025-11-19T14:15:02.708640", "MEAN_MOTION": 1.00252177, "ECCENTRICITY": 0.0026966, "INCLINATION": 58.4003, "RA_OF_ASC_NODE": 39.8168, "ARG_OF_PERICENTER": 221.2202, "MEAN_ANOMALY": 126.9723, "EPHEMERIS_TYPE": 0, "CLASSIFICATION_TYPE": "U", "NORAD_CAT_ID": 44204, "ELEMENT_SET_NO": 999, "REV_AT_EPOCH": 510, "BSTAR": 0, "MEAN_MOTION_DOT": -2.26e-06, "MEAN_MOTION_DDOT": 0}, "tle": {"line1": "1 44204U 19023A   25323.59378135 -.00000226  00000+0  00000+0 0  9994", "line2": "2 44204  58.4003  39.8168 0026966 221.2202 126.9723  1.00252177  5102"}}, "geometry": {"type": "Point", "coordinates": [-96.21048106394186, -48.61268699404366]}}, {"type": "Feature", "properties": {"norad_id": 44231, "name": "BEIDOU-2 G8 (C01)", "group": "gnss", "lat": -1.4143146616391495, "lon": -47.48092461999213, "alt_km": 35752.61625843652, "timestamp": "2025-12-12T05:47:29.014548+00:00", "meta": {"OBJECT_NAME": "BEIDOU-2 G8 (C01)", "OBJECT_ID": "2019-027A", "EPOCH": "2025-12-11T21:02:46.768416", "MEAN_MOTION": 1.00268043, "ECCENTRICITY": 0.0008668, "INCLINATION": 1.6601, "RA_OF_ASC_NODE": 74.7004, "ARG_OF_PERICENTER": 255.5046, "MEAN_ANOMALY": 210.8275, "EPHEMERIS_TYPE": 0, "CLASSIFICATION_TYPE": "U", "NORAD_CAT_ID": 44231, "ELEMENT_SET_NO": 999, "REV_AT_EPOCH": 2420, "BSTAR": 0, "MEAN_MOTION_DOT": -2.4e-06, "MEAN_MOTION_DDOT": 0}, "tle": {"line1": "1 44231U 19027A   25345.87693019 -.00000240  00000+0  00000+0 0  9990", "line2": "2 44231   1.6601  74.7004 0008668 255.5046 210.8275  1.00268043 24204"}}, "geometry": {"type": "Point", "coordinates": [-47.48092461999213, -1.4143146616391495]}}, {"type": "Feature", "properties": {"norad_id": 44299, "name": "COSMOS 2534 (758)", "group": "gnss", "lat": 0.29257177219781505, "lon": -160.94665851145749, "alt_km": 19125.162655196942, "timestamp": "2025-12-12T05:47:29.014559+00:00", "meta": {"OBJECT_NAME": "COSMOS 2534 (758)", "OBJECT_ID": "2019-030A", "EPOCH": "2025-12-10T14:34:24.563136", "MEAN_MOTION": 2.13102261, "ECCENTRICITY": 0.0008999, "INCLINATION": 64.3653, "RA_OF_ASC_NODE": 198.9649, "ARG_OF_PERICENTER": 283.4628, "MEAN_ANOMALY": 263.2195, "EPHEMERIS_TYPE": 0, "CLASSIFICATION_TYPE": "U", "NORAD_CAT_ID": 44299, "ELEMENT_SET_NO": 999, "REV_AT_EPOCH": 5090, "BSTAR": 0, "MEAN_MOTION_DOT": 4.7e-07, "MEAN_MOTION_DDOT": 0}, "tle": {"line1": "1 44299U 19030A   25344.60722874  .00000047  00000+0  00000+0 0  9994", "line2": "2 44299  64.3653 198.9649 0008999 283.4628 263.2195  2.13102261 50901"}}, "geometry": {"type": "Point", "coordinates": [-160.94665851145749, 0.29257177219781505]}}, {"type": "Feature", "properties": {"norad_id": 44337, "name": "BEIDOU-3 IGSO-2 (C39)", "group": "gnss", "lat": 41.174259568935206, "lon": -56.9791090204936, "alt_km": 35742.3989270143, "timestamp": "2025-12-12T05:47:29.014572+00:00", "meta": {"OBJECT_NAME": "BEIDOU-3 IGSO-2 (C39)", "OBJECT_ID": "2019-035A", "EPOCH": "2025-12-10T21:20:38.716800", "MEAN_MOTION": 1.00271557, "ECCENTRICITY": 0.00373373, "INCLINATION": 55.2247, "RA_OF_ASC_NODE": 160.5169, "ARG_OF_PERICENTER": 202.3364, "MEAN_ANOMALY": 156.6887, "EPHEMERIS_TYPE": 0, "CLASSIFICATION_TYPE": "U", "NORAD_CAT_ID": 44337, "ELEMENT_SET_NO": 999, "REV_AT_EPOCH": 2377, "BSTAR": 0, "MEAN_MOTION_DOT": -6.6e-07, "MEAN_MOTION_DDOT": 0}, "tle": {"line1": "1 44337U 19035A   25344.88933700 -.00000066  00000+0  00000+0 0  9996", "line2": "2 44337  55.2247 160.5169 0037337 202.3364 156.6887  1.00271557 23777"}}, "geometry": {"type": "Point", "coordinates": [-56.9791090204936, 41.174259568935206]}}]}